NORAD_CAT_ID,OBJECT_NAME,OBJECT_TYPE,EPOCH,MEAN_MOTION,ECCENTRICITY,INCLINATION,RA_OF_ASC_NODE,ARG_OF_PERICENTER,MEAN_ANOMALY,BSTAR,MEAN_MOTION_DOT,MEAN_MOTION_DDOT,TLE_LINE0,TLE_LINE1,TLE_LINE2,SEMIMAJOR_AXIS,PERIOD,APOGEE,PERIGEE,DECAYED
51858.0,STARLINK-3563,PAYLOAD,2022-11-27 03:46:57,15.08843325,0.0002242,53.2175,359.5487,41.9046,318.2117,-4.8421e-05,-1.059e-05,0.0,0 STARLINK-3563,1 51858U 22022G   22331.15761375 -.00001059  00000-0 -48421-4 0  9991,2 51858  53.2175 359.5487 0002242  41.9046 318.2117 15.08843325 42083,6917.87,95.437,541.286,538.184,0.0
51858.0,STARLINK-3563,PAYLOAD,2022-11-27 11:43:53,15.08835855,0.0002185,53.218,358.0634,40.2568,319.8585,-0.00012827,-2.329e-05,0.0,0 STARLINK-3563,1 51858U 22022G   22331.48881655 -.00002329  00000-0 -12827-3 0  9992,2 51858  53.2180 358.0634 0002185  40.2568 319.8585 15.08835855 42135,6917.893,95.438,541.27,538.246,0.0
51858.0,STARLINK-3563,PAYLOAD,2022-11-27 21:16:13,15.088316399999998,0.0002178,53.2188,356.2779,41.8105,318.3053,-3.2592e-05,-8.07e-06,0.0,0 STARLINK-3563,1 51858U 22022G   22331.88626580 -.00000807  00000-0 -32592-4 0  9991,2 51858  53.2188 356.2779 0002178  41.8105 318.3053 15.08831640 42197,6917.906,95.438,541.278,538.264,0.0
51858.0,STARLINK-3563,PAYLOAD,2022-11-28 03:37:45,15.08841481,0.0002188,53.2186,355.0881,44.003,316.1136,-1.0277e-05,-4.52e-06,0.0,0 STARLINK-3563,1 51858U 22022G   22332.15121967 -.00000452  00000-0 -10277-4 0  9993,2 51858  53.2186 355.0881 0002188  44.0030 316.1136 15.08841481 42236,6917.876,95.437,541.254,538.227,0.0
51858.0,STARLINK-3563,PAYLOAD,2022-11-28 11:34:40,15.088432199999998,0.000228,53.2178,353.6016,43.0471,317.0699,5.0386e-05,5.14e-06,0.0,0 STARLINK-3563,1 51858U 22022G   22332.48241708  .00000514  00000-0  50386-4 0  9997,2 51858  53.2178 353.6016 0002280  43.0471 317.0699 15.08843220 42284,6917.871,95.437,541.313,538.158,0.0
51858.0,STARLINK-3563,PAYLOAD,2022-11-29 08:14:41,15.08838812,0.0002325,53.2177,349.7361,42.6253,317.4919,4.8222e-05,4.79e-06,0.0,0 STARLINK-3563,1 51858U 22022G   22333.34354125  .00000479  00000-0  48222-4 0  9997,2 51858  53.2177 349.7361 0002325  42.6253 317.4919 15.08838812 42410,6917.884,95.438,541.357,538.141,0.0
51858.0,STARLINK-3563,PAYLOAD,2022-11-29 17:47:00,15.08841284,0.0002355,53.2177,347.9516,43.404,316.7137,0.00024547,3.621e-05,0.0,0 STARLINK-3563,1 51858U 22022G   22333.74098120  .00003621  00000-0  24547-3 0  9996,2 51858  53.2177 347.9516 0002355  43.4040 316.7137 15.08841284 42475,6917.876,95.437,541.371,538.112,0.0
51858.0,STARLINK-3563,PAYLOAD,2022-11-30 09:40:52,15.0883689,0.0002397,53.2176,344.9781,45.0365,315.0821,5.3342e-05,5.61e-06,0.0,0 STARLINK-3563,1 51858U 22022G   22334.40338461  .00000561  00000-0  53342-4 0  9991,2 51858  53.2176 344.9781 0002397  45.0365 315.0821 15.08836890 42579,6917.89,95.438,541.413,538.097,0.0
51858.0,STARLINK-3563,PAYLOAD,2022-11-30 11:16:15,15.08838231,0.000238,53.2176,344.6808,45.0121,315.1064,5.9923e-05,6.65e-06,0.0,0 STARLINK-3563,1 51858U 22022G   22334.46962398  .00000665  00000-0  59923-4 0  9995,2 51858  53.2176 344.6808 0002380  45.0121 315.1064 15.08838231 42580,6917.886,95.438,541.3969999999998,538.104,0.0
51858.0,STARLINK-3563,PAYLOAD,2022-11-30 17:37:47,15.088442,0.0002369,53.2177,343.4915,44.8358,315.2825,8.6531e-05,1.089e-05,0.0,0 STARLINK-3563,1 51858U 22022G   22334.73458039  .00001089  00000-0  86531-4 0  9993,2 51858  53.2177 343.4915 0002369  44.8358 315.2825 15.08844200 42627,6917.868,95.437,541.371,538.094,0.0
51858.0,STARLINK-3563,PAYLOAD,2022-12-01 11:07:02,15.08834817,0.0002282,53.2188,340.2205,44.7777,315.3399,7.3407e-05,8.8e-06,0.0,0 STARLINK-3563,1 51858U 22022G   22335.46322913  .00000880  00000-0  73407-4 0  9991,2 51858  53.2188 340.2205 0002282  44.7777 315.3399 15.08834817 42736,6917.896,95.438,541.34,538.183,0.0
51858.0,STARLINK-3563,PAYLOAD,2022-12-01 17:28:35,15.0883464,0.0002434,53.2192,339.0309,45.4363,314.6827,1.549e-05,-4.2e-07,0.0,0 STARLINK-3563,1 51858U 22022G   22335.72819155 -.00000042  00000-0  15490-4 0  9998,2 51858  53.2192 339.0309 0002434  45.4363 314.6827 15.08834640 42776,6917.897,95.438,541.446,538.078,0.0
51858.0,STARLINK-3563,PAYLOAD,2022-12-02 09:22:26,15.08840671,0.0002243,53.2184,336.057,41.3117,318.8044,0.00011704,1.575e-05,0.0,0 STARLINK-3563,1 51858U 22022G   22336.39058592  .00001575  00000-0  11704-3 0  9996,2 51858  53.2184 336.0570 0002243  41.3117 318.8044 15.08840671 42873,6917.878000000002,95.438,541.295,538.192,0.0
51858.0,STARLINK-3563,PAYLOAD,2022-12-02 17:19:22,15.08841087,0.000232,53.2188,334.5703,42.6704,317.4468,6.3093e-05,7.16e-06,0.0,0 STARLINK-3563,1 51858U 22022G   22336.72178750  .00000716  00000-0  63093-4 0  9997,2 51858  53.2188 334.5703 0002320  42.6704 317.4468 15.08841087 42923,6917.877,95.437,541.347,538.137,0.0
51858.0,STARLINK-3563,PAYLOAD,2022-12-03 09:13:13,15.08842948,0.0002233,53.2174,331.5968,33.8534,326.26,0.00010394,1.366e-05,0.0,0 STARLINK-3563,1 51858U 22022G   22337.38418511  .00001366  00000-0  10394-3 0  9999,2 51858  53.2174 331.5968 0002233  33.8534 326.2600 15.08842948 43029,6917.871,95.437,541.281,538.192,0.0
51858.0,STARLINK-3563,PAYLOAD,2022-12-03 17:10:09,15.08834663,0.0002307,53.2167,330.1109,38.0639,322.0516,8.2505e-05,1.025e-05,0.0,0 STARLINK-3563,1 51858U 22022G   22337.71539106  .00001025  00000-0  82505-4 0  9996,2 51858  53.2167 330.1109 0002307  38.0639 322.0516 15.08834663 43078,6917.897,95.438,541.3580000000002,538.1659999999998,0.0
51858.0,STARLINK-3563,PAYLOAD,2022-12-04 02:42:28,15.08845451,0.0002764,53.2169,328.3281,40.7399,319.3799,4.0963e-05,3.64e-06,0.0,0 STARLINK-3563,1 51858U 22022G   22338.11282749  .00000364  00000-0  40963-4 0  9996,2 51858  53.2169 328.3281 0002764  40.7399 319.3799 15.08845451 43136,6917.864000000001,95.437,541.641,537.817,0.0
51858.0,STARLINK-3563,PAYLOAD,2022-12-04 10:39:23,15.08843331,0.0002293,53.217,326.8385,37.1345,322.9805,0.00011031,1.468e-05,0.0,0 STARLINK-3563,1 51858U 22022G   22338.44402693  .00001468  00000-0  11031-3 0  9993,2 51858  53.2170 326.8385 0002293  37.1345 322.9805 15.08843331 43182,6917.87,95.437,541.321,538.149,0.0
51858.0,STARLINK-3563,PAYLOAD,2022-12-04 17:00:56,15.08839444,0.0002297,53.217,325.6496,38.8276,321.2881,0.00013171,1.808e-05,0.0,0 STARLINK-3563,1 51858U 22022G   22338.70898932  .00001808  00000-0  13171-3 0  9992,2 51858  53.2170 325.6496 0002297  38.8276 321.2881 15.08839444 43228,6917.882,95.438,541.336,538.158,0.0
51858.0,STARLINK-3563,PAYLOAD,2022-12-05 02:33:14,15.08862949,0.0002429,53.2169,323.8652,37.7056,322.4106,-0.00012971,-2.354e-05,0.0,0 STARLINK-3563,1 51858U 22022G   22339.10641486 -.00002354  00000-0 -12971-3 0  9993,2 51858  53.2169 323.8652 0002429  37.7056 322.4106 15.08862949 43286,6917.81,95.436,541.356,537.995,0.0
51858.0,STARLINK-3563,PAYLOAD,2022-12-05 08:54:47,15.08848571,0.0002274,53.2185,322.6764,36.9937,323.1212,0.00015909,2.245e-05,0.0,0 STARLINK-3563,1 51858U 22022G   22339.37138376  .00002245  00000-0  15909-3 0  9992,2 51858  53.2185 322.6764 0002274  36.9937 323.1212 15.08848571 43328,6917.854,95.437,541.2919999999998,538.146,0.0
51858.0,STARLINK-3563,PAYLOAD,2022-12-06 08:45:34,15.08849248,0.0002345,53.2179,318.2154,36.6323,323.483,7.489e-05,9.04e-06,0.0,0 STARLINK-3563,1 51858U 22022G   22340.36497994  .00000904  00000-0  74890-4 0  9992,2 51858  53.2179 318.2154 0002345  36.6323 323.4830 15.08849248 43477,6917.852,95.437,541.339,538.095,0.0
51858.0,STARLINK-3563,PAYLOAD,2022-12-06 15:07:07,15.08838881,0.0002322,53.2172,317.0255,39.681,320.4351,-6.3835e-05,-1.304e-05,0.0,0 STARLINK-3563,1 51858U 22022G   22340.62994485 -.00001304  00000-0 -63835-4 0  9992,2 51858  53.2172 317.0255 0002322  39.6810 320.4351 15.08838881 43519,6917.884,95.438,541.355,538.1419999999998,0.0
51858.0,STARLINK-3563,PAYLOAD,2022-12-06 23:04:03,15.08830984,0.0002151,53.2183,315.5386,39.0711,321.0436,-0.00010144,-1.902e-05,0.0,0 STARLINK-3563,1 51858U 22022G   22340.96114883 -.00001902  00000-0 -10144-3 0  9993,2 51858  53.2183 315.5386 0002151  39.0711 321.0436 15.08830984 43565,6917.908,95.438,541.261,538.285,0.0
51858.0,STARLINK-3563,PAYLOAD,2022-12-07 14:57:54,15.08839387,0.0002146,53.2187,312.5656,39.5136,320.6012,8.144e-05,1.008e-05,0.0,0 STARLINK-3563,1 51858U 22022G   22341.62354897  .00001008  00000-0  81440-4 0  9991,2 51858  53.2187 312.5656 0002146  39.5136 320.6012 15.08839387 43668,6917.882,95.438,541.232,538.263,0.0
51858.0,STARLINK-3563,PAYLOAD,2022-12-08 06:51:46,15.08838068,0.0002114,53.2188,309.5916,44.7438,315.3725,9.1612e-05,1.17e-05,0.0,0 STARLINK-3563,1 51858U 22022G   22342.28595014  .00001170  00000-0  91612-4 0  9994,2 51858  53.2188 309.5916 0002114  44.7438 315.3725 15.08838068 43760,6917.886,95.438,541.214,538.289,0.0
51858.0,STARLINK-3563,PAYLOAD,2022-12-08 14:48:41,15.08851762,0.00022,53.219,308.1045,41.2207,318.8951,0.00026886,3.995e-05,0.0,0 STARLINK-3563,1 51858U 22022G   22342.61714284  .00003995  00000-0  26886-3 0  9990,2 51858  53.2190 308.1045 0002200  41.2207 318.8951 15.08851762 43814,6917.844,95.437,541.231,538.188,0.0
51858.0,STARLINK-3563,PAYLOAD,2022-12-09 08:17:55,15.08853457,0.0001979,53.2171,304.8342,30.4482,329.6625,0.00027134,4.034e-05,0.0,0 STARLINK-3563,1 51858U 22022G   22343.34577778  .00004034  00000-0  27134-3 0  9998,2 51858  53.2171 304.8342 0001979  30.4482 329.6625 15.08853457 43926,6917.839,95.437,541.073,538.335,0.0
51858.0,STARLINK-3563,PAYLOAD,2022-12-09 21:01:01,15.08826245,0.0002128,53.2183,302.4525,40.7196,319.3955,-0.00032143,-5.398e-05,0.0,0 STARLINK-3563,1 51858U 22022G   22343.87571004 -.00005398  00000-0 -32143-3 0  9994,2 51858  53.2183 302.4525 0002128  40.7196 319.3955 15.08826245 44006,6917.922,95.438,541.26,538.315,0.0
